CCSDS_OMM_VERS = 2.0
CREATION_DATE  = 
ORIGINATOR     = 

OBJECT_NAME    = CYGNUS NG-23
OBJECT_ID      = 2025-208A
CENTER_NAME    = EARTH
REF_FRAME      = TEME
TIME_SYSTEM    = UTC
MEAN_ELEMENT_THEORY = SGP/SGP4

EPOCH          = 2025-12-25T13:37:14.375136
MEAN_MOTION    = 15.49813539
ECCENTRICITY   = .00032241
INCLINATION    = 51.6318
RA_OF_ASC_NODE = 78.9495
ARG_OF_PERICENTER = 299.9641
MEAN_ANOMALY   = 60.1027

EPHEMERIS_TYPE = 0
CLASSIFICATION_TYPE = U
NORAD_CAT_ID   = 65616
ELEMENT_SET_NO = 999
REV_AT_EPOCH   = 22
BSTAR          = .2559065E-3
MEAN_MOTION_DOT = .14081E-3
MEAN_MOTION_DDOT = 0

CCSDS_OMM_VERS = 2.0
CREATION_DATE  = 
ORIGINATOR     = 

OBJECT_NAME    = DRAGONFLY
OBJECT_ID      = 1998-067XH
CENTER_NAME    = EARTH
REF_FRAME      = TEME
TIME_SYSTEM    = UTC
MEAN_ELEMENT_THEORY = SGP/SGP4

EPOCH          = 2025-12-25T10:27:45.650592
MEAN_MOTION    = 15.76365427
ECCENTRICITY   = .0008108
INCLINATION    = 51.6246
RA_OF_ASC_NODE = 70.5435
ARG_OF_PERICENTER = 352.3473
MEAN_ANOMALY   = 7.7402

EPHEMERIS_TYPE = 0
CLASSIFICATION_TYPE = U
NORAD_CAT_ID   = 65729
ELEMENT_SET_NO = 999
REV_AT_EPOCH   = 1516
BSTAR          = .12462E-2
MEAN_MOTION_DOT = .205682E-2
MEAN_MOTION_DDOT = 0

CCSDS_OMM_VERS = 2.0
CREATION_DATE  = 
ORIGINATOR     = 

OBJECT_NAME    = 1998-067XK
OBJECT_ID      = 1998-067XK
CENTER_NAME    = EARTH
REF_FRAME      = TEME
TIME_SYSTEM    = UTC
MEAN_ELEMENT_THEORY = SGP/SGP4

EPOCH          = 2025-12-25T10:12:53.157600
MEAN_MOTION    = 15.68190108
ECCENTRICITY   = .0005001
INCLINATION    = 51.6286
RA_OF_ASC_NODE = 72.7563
ARG_OF_PERICENTER = 324.4841
MEAN_ANOMALY   = 35.5822

EPHEMERIS_TYPE = 0
CLASSIFICATION_TYPE = U
NORAD_CAT_ID   = 65731
ELEMENT_SET_NO = 999
REV_AT_EPOCH   = 1513
BSTAR          = .91133E-3
MEAN_MOTION_DOT = .104664E-2
MEAN_MOTION_DDOT = 0

CCSDS_OMM_VERS = 2.0
CREATION_DATE  = 
ORIGINATOR     = 

OBJECT_NAME    = RSP-03
OBJECT_ID      = 1998-067XL
CENTER_NAME    = EARTH
REF_FRAME      = TEME
TIME_SYSTEM    = UTC
MEAN_ELEMENT_THEORY = SGP/SGP4

EPOCH          = 2025-12-25T06:38:37.432032
MEAN_MOTION    = 15.71873826
ECCENTRICITY   = .0006046
INCLINATION    = 51.6260
RA_OF_ASC_NODE = 72.4976
ARG_OF_PERICENTER = 331.0295
MEAN_ANOMALY   = 29.0366

EPHEMERIS_TYPE = 0
CLASSIFICATION_TYPE = U
NORAD_CAT_ID   = 65732
ELEMENT_SET_NO = 999
REV_AT_EPOCH   = 1513
BSTAR          = .10911E-2
MEAN_MOTION_DOT = .147046E-2
MEAN_MOTION_DDOT = 0

CCSDS_OMM_VERS = 2.0
CREATION_DATE  = 
ORIGINATOR     = 

OBJECT_NAME    = GHS-01
OBJECT_ID      = 1998-067XM
CENTER_NAME    = EARTH
REF_FRAME      = TEME
TIME_SYSTEM    = UTC
MEAN_ELEMENT_THEORY = SGP/SGP4

EPOCH          = 2025-12-25T11:39:15.872832
MEAN_MOTION    = 15.80737686
ECCENTRICITY   = .0009282
INCLINATION    = 51.6282
RA_OF_ASC_NODE = 69.3856
ARG_OF_PERICENTER = 357.4612
MEAN_ANOMALY   = 2.6342

EPHEMERIS_TYPE = 0
CLASSIFICATION_TYPE = U
NORAD_CAT_ID   = 65733
ELEMENT_SET_NO = 999
REV_AT_EPOCH   = 1519
BSTAR          = .14102E-2
MEAN_MOTION_DOT = .28642E-2
MEAN_MOTION_DDOT = 0

CCSDS_OMM_VERS = 2.0
CREATION_DATE  = 
ORIGINATOR     = 

OBJECT_NAME    = YOTSUBA-KULOVER
OBJECT_ID      = 1998-067XN
CENTER_NAME    = EARTH
REF_FRAME      = TEME
TIME_SYSTEM    = UTC
MEAN_ELEMENT_THEORY = SGP/SGP4

EPOCH          = 2025-12-25T07:55:23.883456
MEAN_MOTION    = 15.61141246
ECCENTRICITY   = .00024963
INCLINATION    = 51.6289
RA_OF_ASC_NODE = 76.6197
ARG_OF_PERICENTER = 359.0100
MEAN_ANOMALY   = 1.0889

EPHEMERIS_TYPE = 0
CLASSIFICATION_TYPE = U
NORAD_CAT_ID   = 65941
ELEMENT_SET_NO = 999
REV_AT_EPOCH   = 1182
BSTAR          = .81019067E-3
MEAN_MOTION_DOT = .69861E-3
MEAN_MOTION_DDOT = 0

CCSDS_OMM_VERS = 2.0
CREATION_DATE  = 
ORIGINATOR     = 

OBJECT_NAME    = BOTAN
OBJECT_ID      = 1998-067XP
CENTER_NAME    = EARTH
REF_FRAME      = TEME
TIME_SYSTEM    = UTC
MEAN_ELEMENT_THEORY = SGP/SGP4

EPOCH          = 2025-12-25T11:54:02.710944
MEAN_MOTION    = 15.65573117
ECCENTRICITY   = .00034448
INCLINATION    = 51.6278
RA_OF_ASC_NODE = 74.7240
ARG_OF_PERICENTER = 339.5705
MEAN_ANOMALY   = 20.5152

EPHEMERIS_TYPE = 0
CLASSIFICATION_TYPE = U
NORAD_CAT_ID   = 65942
ELEMENT_SET_NO = 999
REV_AT_EPOCH   = 1186
BSTAR          = .11099214E-2
MEAN_MOTION_DOT = .11485E-2
MEAN_MOTION_DDOT = 0

CCSDS_OMM_VERS = 2.0
CREATION_DATE  = 
ORIGINATOR     = 

OBJECT_NAME    = E-KAGAKU-1
OBJECT_ID      = 1998-067XQ
CENTER_NAME    = EARTH
REF_FRAME      = TEME
TIME_SYSTEM    = UTC
MEAN_ELEMENT_THEORY = SGP/SGP4

EPOCH          = 2025-12-25T10:59:52.984032
MEAN_MOTION    = 15.61171734
ECCENTRICITY   = .00014574
INCLINATION    = 51.6310
RA_OF_ASC_NODE = 75.9814
ARG_OF_PERICENTER = 327.9549
MEAN_ANOMALY   = 32.1355

EPHEMERIS_TYPE = 0
CLASSIFICATION_TYPE = U
NORAD_CAT_ID   = 65943
ELEMENT_SET_NO = 999
REV_AT_EPOCH   = 1184
BSTAR          = .81459816E-3
MEAN_MOTION_DOT = .70327E-3
MEAN_MOTION_DDOT = 0

CCSDS_OMM_VERS = 2.0
CREATION_DATE  = 
ORIGINATOR     = 

OBJECT_NAME    = HRC MONOBLOCK CAMERA
OBJECT_ID      = 1998-067XR
CENTER_NAME    = EARTH
REF_FRAME      = TEME
TIME_SYSTEM    = UTC
MEAN_ELEMENT_THEORY = SGP/SGP4

EPOCH          = 2025-12-25T15:16:26.141088
MEAN_MOTION    = 15.55029528
ECCENTRICITY   = .0002034
INCLINATION    = 51.6301
RA_OF_ASC_NODE = 77.1613
ARG_OF_PERICENTER = 247.8155
MEAN_ANOMALY   = 112.2620

EPHEMERIS_TYPE = 0
CLASSIFICATION_TYPE = U
NORAD_CAT_ID   = 66052
ELEMENT_SET_NO = 999
REV_AT_EPOCH   = 1084
BSTAR          = .54388E-3
MEAN_MOTION_DOT = .369E-3
MEAN_MOTION_DDOT = 0

CCSDS_OMM_VERS = 2.0
CREATION_DATE  = 
ORIGINATOR     = 

OBJECT_NAME    = HTV-X1
OBJECT_ID      = 2025-241A
CENTER_NAME    = EARTH
REF_FRAME      = TEME
TIME_SYSTEM    = UTC
MEAN_ELEMENT_THEORY = SGP/SGP4

EPOCH          = 2025-12-25T13:37:14.375136
MEAN_MOTION    = 15.49813539
ECCENTRICITY   = .00032241
INCLINATION    = 51.6318
RA_OF_ASC_NODE = 78.9495
ARG_OF_PERICENTER = 299.9641
MEAN_ANOMALY   = 60.1027

EPHEMERIS_TYPE = 0
CLASSIFICATION_TYPE = U
NORAD_CAT_ID   = 66174
ELEMENT_SET_NO = 999
REV_AT_EPOCH   = 51
BSTAR          = .2559065E-3
MEAN_MOTION_DOT = .14081E-3
MEAN_MOTION_DDOT = 0

CCSDS_OMM_VERS = 2.0
CREATION_DATE  = 
ORIGINATOR     = 

OBJECT_NAME    = SZ-21 MODULE
OBJECT_ID      = 2025-246C
CENTER_NAME    = EARTH
REF_FRAME      = TEME
TIME_SYSTEM    = UTC
MEAN_ELEMENT_THEORY = SGP/SGP4

EPOCH          = 2025-12-25T04:36:53.601984
MEAN_MOTION    = 15.63137537
ECCENTRICITY   = .0004589
INCLINATION    = 41.4767
RA_OF_ASC_NODE = 300.0489
ARG_OF_PERICENTER = 327.9877
MEAN_ANOMALY   = 32.0683

EPHEMERIS_TYPE = 0
CLASSIFICATION_TYPE = U
NORAD_CAT_ID   = 66515
ELEMENT_SET_NO = 999
REV_AT_EPOCH   = 639
BSTAR          = .31272E-3
MEAN_MOTION_DOT = .29146E-3
MEAN_MOTION_DDOT = 0

CCSDS_OMM_VERS = 2.0
CREATION_DATE  = 
ORIGINATOR     = 

OBJECT_NAME    = SHENZHOU-22
OBJECT_ID      = 2025-272A
CENTER_NAME    = EARTH
REF_FRAME      = TEME
TIME_SYSTEM    = UTC
MEAN_ELEMENT_THEORY = SGP/SGP4

EPOCH          = 2025-12-25T12:33:15.160896
MEAN_MOTION    = 15.59679589
ECCENTRICITY   = .00083772
INCLINATION    = 41.4683
RA_OF_ASC_NODE = 299.0697
ARG_OF_PERICENTER = 143.3414
MEAN_ANOMALY   = 216.7999

EPHEMERIS_TYPE = 0
CLASSIFICATION_TYPE = U
NORAD_CAT_ID   = 66645
ELEMENT_SET_NO = 999
REV_AT_EPOCH   = 26598
BSTAR          = .22529008E-3
MEAN_MOTION_DOT = .18242E-3
MEAN_MOTION_DDOT = 0

