CYGNUS NG-23            
1 65616U 25208A   25359.56752749  .00014081  00000+0  25591-3 0  9998
2 65616  51.6318  78.9495 0003224 299.9641  60.1027 15.49813539   221
DRAGONFLY               
1 65729U 98067XH  25359.43594503  .00205682  00000+0  12462-2 0  9995
2 65729  51.6246  70.5435 0008108 352.3473   7.7402 15.76365427 15162
1998-067XK              
1 65731U 98067XK  25359.42561525  .00104664  00000+0  91133-3 0  9996
2 65731  51.6286  72.7563 0005001 324.4841  35.5822 15.68190108 15138
RSP-03                  
1 65732U 98067XL  25359.27682213  .00147046  00000+0  10911-2 0  9993
2 65732  51.6260  72.4976 0006046 331.0295  29.0366 15.71873826 15133
GHS-01                  
1 65733U 98067XM  25359.48560038  .00286420  00000+0  14102-2 0  9993
2 65733  51.6282  69.3856 0009282 357.4612   2.6342 15.80737686 15190
YOTSUBA-KULOVER         
1 65941U 98067XN  25359.33013754  .00069861  00000+0  81019-3 0  9996
2 65941  51.6289  76.6197 0002496 359.0100   1.0889 15.61141246 11822
BOTAN                   
1 65942U 98067XP  25359.49586471  .00114850  00000+0  11099-2 0  9994
2 65942  51.6278  74.7240 0003444 339.5705  20.5152 15.65573117 11860
E-KAGAKU-1              
1 65943U 98067XQ  25359.45825213  .00070327  00000+0  81460-3 0  9991
2 65943  51.6310  75.9814 0001457 327.9549  32.1355 15.61171734 11844
HRC MONOBLOCK CAMERA    
1 66052U 98067XR  25359.63641367  .00036900  00000+0  54388-3 0  9997
2 66052  51.6301  77.1613 0002034 247.8155 112.2620 15.55029528 10842
HTV-X1                  
1 66174U 25241A   25359.56752749  .00014081  00000+0  25591-3 0  9995
2 66174  51.6318  78.9495 0003224 299.9641  60.1027 15.49813539   513
SZ-21 MODULE            
1 66515U 25246C   25359.19228706  .00029146  00000+0  31272-3 0  9990
2 66515  41.4767 300.0489 0004589 327.9877  32.0683 15.63137537  6398
SHENZHOU-22             
1 66645U 25272A   25359.52309214  .00018242  00000+0  22529-3 0  9994
2 66645  41.4683 299.0697 0008377 143.3414 216.7999 15.59679589265989
